ONEWEB-0161             
1 48053U 21025M   25232.34361420  .00000025  00000+0  33878-4 0  9996
2 48053  87.8999  19.9867 0001654 100.3769 259.7546 13.13468218214028
ONEWEB-0158             
1 48054U 21025N   25231.92211348  .00000023  00000+0  27295-4 0  9997
2 48054  87.8998  20.0500 0001904  93.5662 266.5685 13.13469552214086
ONEWEB-0157             
1 48055U 21025P   25232.32838494  .00000382  00000+0  10106-2 0  9999
2 48055  87.8996  19.9785 0001417 106.7143 253.4141 13.13470504214088
ONEWEB-0162             
1 48056U 21025Q   25231.92366053  .00000096  00000+0  22893-3 0  9991
2 48056  87.8995  20.0578 0001729  97.1750 262.9576 13.13471278213999
ONEWEB-0155             
1 48057U 21025R   25231.93057016  .00000261  00000+0  68018-3 0  9992
2 48057  87.8993  20.0641 0001568  92.4482 267.6827 13.13469527214132
ONEWEB-0149             
1 48058U 21025S   25232.33347054  .00000244  00000+0  63260-3 0  9997
2 48058  87.8994  19.9784 0001890 100.9468 259.1874 13.13469077214000
ONEWEB-0148             
1 48059U 21025T   25232.14386675 -.00000127  00000+0 -38179-3 0  9992
2 48059  87.8992  20.0409 0002002 114.7853 245.3484 13.13469766214091
ONEWEB-0160             
1 48060U 21025U   25231.93226923  .00000248  00000+0  64519-3 0  9998
2 48060  87.8994  20.0801 0002440  82.1501 277.9905 13.13470842214013
ONEWEB-0163             
1 48061U 21025V   25232.14555733 -.00001018  00000+0 -28224-2 0  9997
2 48061  87.8996  20.0180 0001176 105.5495 254.5764 13.13474958214176
ONEWEB-0159             
1 48062U 21025W   25231.90855121 -.00000432  00000+0 -12180-2 0  9998
2 48062  87.8995  20.0470 0001642 103.1468 256.9845 13.13469897214059
ONEWEB-0164             
1 48063U 21025X   25232.34699741 -.00000019  00000+0 -86621-4 0  9996
2 48063  87.8996  19.9692 0001771  94.2201 265.9131 13.13470746214101
ONEWEB-0167             
1 48064U 21025Y   25231.91787269 -.00000067  00000+0 -21854-3 0  9991
2 48064  87.9002  20.0884 0001039  80.8297 279.2950 13.13471684214020
ONEWEB-0166             
1 48065U 21025Z   25232.16925682  .00000241  00000+0  62579-3 0  9994
2 48065  87.8991  19.9889 0001791 101.4596 258.6734 13.13470732214132
ONEWEB-0151             
1 48066U 21025AA  25232.32331448  .00000355  00000+0  93764-3 0  9990
2 48066  87.8996  19.9826 0001655  92.3211 267.8108 13.13469364214103
ONEWEB-0170             
1 48067U 21025AB  25232.33176701  .00000267  00000+0  69645-3 0  9994
2 48067  87.8998  19.9870 0001826  80.1343 279.9992 13.13470660214056
ONEWEB-0168             
1 48068U 21025AC  25232.16417993  .00000282  00000+0  73607-3 0  9997
2 48068  87.8996  20.0018 0001625  98.9001 261.2312 13.13469428214046
ONEWEB-0173             
1 48069U 21025AD  25231.92718248  .00000130  00000+0  32171-3 0  9991
2 48069  87.8997  20.0570 0001304  98.5104 261.6173 13.13471099214254
