[{"OBJECT_NAME":"ONEWEB-0161","OBJECT_ID":"2021-025M","EPOCH":"2025-08-20T08:14:48.266880","MEAN_MOTION":13.13468218,"ECCENTRICITY":0.0001654,"INCLINATION":87.8999,"RA_OF_ASC_NODE":19.9867,"ARG_OF_PERICENTER":100.3769,"MEAN_ANOMALY":259.7546,"EPHEMERIS_TYPE":0,"CLASSIFICATION_TYPE":"U","NORAD_CAT_ID":48053,"ELEMENT_SET_NO":999,"REV_AT_EPOCH":21402,"BSTAR":3.3878e-5,"MEAN_MOTION_DOT":2.5e-7,"MEAN_MOTION_DDOT":0},{"OBJECT_NAME":"ONEWEB-0158","OBJECT_ID":"2021-025N","EPOCH":"2025-08-19T22:07:50.604672","MEAN_MOTION":13.13469552,"ECCENTRICITY":0.0001904,"INCLINATION":87.8998,"RA_OF_ASC_NODE":20.05,"ARG_OF_PERICENTER":93.5662,"MEAN_ANOMALY":266.5685,"EPHEMERIS_TYPE":0,"CLASSIFICATION_TYPE":"U","NORAD_CAT_ID":48054,"ELEMENT_SET_NO":999,"REV_AT_EPOCH":21408,"BSTAR":2.7295e-5,"MEAN_MOTION_DOT":2.3e-7,"MEAN_MOTION_DDOT":0},{"OBJECT_NAME":"ONEWEB-0157","OBJECT_ID":"2021-025P","EPOCH":"2025-08-20T07:52:52.458816","MEAN_MOTION":13.13470504,"ECCENTRICITY":0.0001417,"INCLINATION":87.8996,"RA_OF_ASC_NODE":19.9785,"ARG_OF_PERICENTER":106.7143,"MEAN_ANOMALY":253.4141,"EPHEMERIS_TYPE":0,"CLASSIFICATION_TYPE":"U","NORAD_CAT_ID":48055,"ELEMENT_SET_NO":999,"REV_AT_EPOCH":21408,"BSTAR":0.0010106,"MEAN_MOTION_DOT":3.82e-6,"MEAN_MOTION_DDOT":0},{"OBJECT_NAME":"ONEWEB-0162","OBJECT_ID":"2021-025Q","EPOCH":"2025-08-19T22:10:04.269792","MEAN_MOTION":13.13471278,"ECCENTRICITY":0.0001729,"INCLINATION":87.8995,"RA_OF_ASC_NODE":20.0578,"ARG_OF_PERICENTER":97.175,"MEAN_ANOMALY":262.9576,"EPHEMERIS_TYPE":0,"CLASSIFICATION_TYPE":"U","NORAD_CAT_ID":48056,"ELEMENT_SET_NO":999,"REV_AT_EPOCH":21399,"BSTAR":0.00022893,"MEAN_MOTION_DOT":9.6e-7,"MEAN_MOTION_DDOT":0},{"OBJECT_NAME":"ONEWEB-0155","OBJECT_ID":"2021-025R","EPOCH":"2025-08-19T22:20:01.261824","MEAN_MOTION":13.13469527,"ECCENTRICITY":0.0001568,"INCLINATION":87.8993,"RA_OF_ASC_NODE":20.0641,"ARG_OF_PERICENTER":92.4482,"MEAN_ANOMALY":267.6827,"EPHEMERIS_TYPE":0,"CLASSIFICATION_TYPE":"U","NORAD_CAT_ID":48057,"ELEMENT_SET_NO":999,"REV_AT_EPOCH":21413,"BSTAR":0.00068018,"MEAN_MOTION_DOT":2.61e-6,"MEAN_MOTION_DDOT":0},{"OBJECT_NAME":"ONEWEB-0149","OBJECT_ID":"2021-025S","EPOCH":"2025-08-20T08:00:11.854656","MEAN_MOTION":13.13469077,"ECCENTRICITY":0.000189,"INCLINATION":87.8994,"RA_OF_ASC_NODE":19.9784,"ARG_OF_PERICENTER":100.9468,"MEAN_ANOMALY":259.1874,"EPHEMERIS_TYPE":0,"CLASSIFICATION_TYPE":"U","NORAD_CAT_ID":48058,"ELEMENT_SET_NO":999,"REV_AT_EPOCH":21400,"BSTAR":0.0006326,"MEAN_MOTION_DOT":2.44e-6,"MEAN_MOTION_DDOT":0},{"OBJECT_NAME":"ONEWEB-0148","OBJECT_ID":"2021-025T","EPOCH":"2025-08-20T03:27:10.087200","MEAN_MOTION":13.13469766,"ECCENTRICITY":0.0002002,"INCLINATION":87.8992,"RA_OF_ASC_NODE":20.0409,"ARG_OF_PERICENTER":114.7853,"MEAN_ANOMALY":245.3484,"EPHEMERIS_TYPE":0,"CLASSIFICATION_TYPE":"U","NORAD_CAT_ID":48059,"ELEMENT_SET_NO":999,"REV_AT_EPOCH":21409,"BSTAR":-0.00038179,"MEAN_MOTION_DOT":-1.27e-6,"MEAN_MOTION_DDOT":0},{"OBJECT_NAME":"ONEWEB-0160","OBJECT_ID":"2021-025U","EPOCH":"2025-08-19T22:22:28.061472","MEAN_MOTION":13.13470842,"ECCENTRICITY":0.000244,"INCLINATION":87.8994,"RA_OF_ASC_NODE":20.0801,"ARG_OF_PERICENTER":82.1501,"MEAN_ANOMALY":277.9905,"EPHEMERIS_TYPE":0,"CLASSIFICATION_TYPE":"U","NORAD_CAT_ID":48060,"ELEMENT_SET_NO":999,"REV_AT_EPOCH":21401,"BSTAR":0.00064519,"MEAN_MOTION_DOT":2.48e-6,"MEAN_MOTION_DDOT":0},{"OBJECT_NAME":"ONEWEB-0163","OBJECT_ID":"2021-025V","EPOCH":"2025-08-20T03:29:36.153312","MEAN_MOTION":13.13474958,"ECCENTRICITY":0.0001176,"INCLINATION":87.8996,"RA_OF_ASC_NODE":20.018,"ARG_OF_PERICENTER":105.5495,"MEAN_ANOMALY":254.5764,"EPHEMERIS_TYPE":0,"CLASSIFICATION_TYPE":"U","NORAD_CAT_ID":48061,"ELEMENT_SET_NO":999,"REV_AT_EPOCH":21417,"BSTAR":-0.0028224,"MEAN_MOTION_DOT":-1.018e-5,"MEAN_MOTION_DDOT":0},{"OBJECT_NAME":"ONEWEB-0159","OBJECT_ID":"2021-025W","EPOCH":"2025-08-19T21:48:18.824544","MEAN_MOTION":13.13469897,"ECCENTRICITY":0.0001642,"INCLINATION":87.8995,"RA_OF_ASC_NODE":20.047,"ARG_OF_PERICENTER":103.1468,"MEAN_ANOMALY":256.9845,"EPHEMERIS_TYPE":0,"CLASSIFICATION_TYPE":"U","NORAD_CAT_ID":48062,"ELEMENT_SET_NO":999,"REV_AT_EPOCH":21405,"BSTAR":-0.001218,"MEAN_MOTION_DOT":-4.32e-6,"MEAN_MOTION_DDOT":0},{"OBJECT_NAME":"ONEWEB-0164","OBJECT_ID":"2021-025X","EPOCH":"2025-08-20T08:19:40.576224","MEAN_MOTION":13.13470746,"ECCENTRICITY":0.0001771,"INCLINATION":87.8996,"RA_OF_ASC_NODE":19.9692,"ARG_OF_PERICENTER":94.2201,"MEAN_ANOMALY":265.9131,"EPHEMERIS_TYPE":0,"CLASSIFICATION_TYPE":"U","NORAD_CAT_ID":48063,"ELEMENT_SET_NO":999,"REV_AT_EPOCH":21410,"BSTAR":-8.6621e-5,"MEAN_MOTION_DOT":-1.9e-7,"MEAN_MOTION_DDOT":0},{"OBJECT_NAME":"ONEWEB-0167","OBJECT_ID":"2021-025Y","EPOCH":"2025-08-19T22:01:44.200416","MEAN_MOTION":13.13471684,"ECCENTRICITY":0.0001039,"INCLINATION":87.9002,"RA_OF_ASC_NODE":20.0884,"ARG_OF_PERICENTER":80.8297,"MEAN_ANOMALY":279.295,"EPHEMERIS_TYPE":0,"CLASSIFICATION_TYPE":"U","NORAD_CAT_ID":48064,"ELEMENT_SET_NO":999,"REV_AT_EPOCH":21402,"BSTAR":-0.00021854,"MEAN_MOTION_DOT":-6.7e-7,"MEAN_MOTION_DDOT":0},{"OBJECT_NAME":"ONEWEB-0166","OBJECT_ID":"2021-025Z","EPOCH":"2025-08-20T04:03:43.789248","MEAN_MOTION":13.13470732,"ECCENTRICITY":0.0001791,"INCLINATION":87.8991,"RA_OF_ASC_NODE":19.9889,"ARG_OF_PERICENTER":101.4596,"MEAN_ANOMALY":258.6734,"EPHEMERIS_TYPE":0,"CLASSIFICATION_TYPE":"U","NORAD_CAT_ID":48065,"ELEMENT_SET_NO":999,"REV_AT_EPOCH":21413,"BSTAR":0.00062579,"MEAN_MOTION_DOT":2.41e-6,"MEAN_MOTION_DDOT":0},{"OBJECT_NAME":"ONEWEB-0151","OBJECT_ID":"2021-025AA","EPOCH":"2025-08-20T07:45:34.371072","MEAN_MOTION":13.13469364,"ECCENTRICITY":0.0001655,"INCLINATION":87.8996,"RA_OF_ASC_NODE":19.9826,"ARG_OF_PERICENTER":92.3211,"MEAN_ANOMALY":267.8108,"EPHEMERIS_TYPE":0,"CLASSIFICATION_TYPE":"U","NORAD_CAT_ID":48066,"ELEMENT_SET_NO":999,"REV_AT_EPOCH":21410,"BSTAR":0.00093764,"MEAN_MOTION_DOT":3.55e-6,"MEAN_MOTION_DDOT":0},{"OBJECT_NAME":"ONEWEB-0170","OBJECT_ID":"2021-025AB","EPOCH":"2025-08-20T07:57:44.669664","MEAN_MOTION":13.1347066,"ECCENTRICITY":0.0001826,"INCLINATION":87.8998,"RA_OF_ASC_NODE":19.987,"ARG_OF_PERICENTER":80.1343,"MEAN_ANOMALY":279.9992,"EPHEMERIS_TYPE":0,"CLASSIFICATION_TYPE":"U","NORAD_CAT_ID":48067,"ELEMENT_SET_NO":999,"REV_AT_EPOCH":21405,"BSTAR":0.00069645,"MEAN_MOTION_DOT":2.67e-6,"MEAN_MOTION_DDOT":0},{"OBJECT_NAME":"ONEWEB-0168","OBJECT_ID":"2021-025AC","EPOCH":"2025-08-20T03:56:25.145952","MEAN_MOTION":13.13469428,"ECCENTRICITY":0.0001625,"INCLINATION":87.8996,"RA_OF_ASC_NODE":20.0018,"ARG_OF_PERICENTER":98.9001,"MEAN_ANOMALY":261.2312,"EPHEMERIS_TYPE":0,"CLASSIFICATION_TYPE":"U","NORAD_CAT_ID":48068,"ELEMENT_SET_NO":999,"REV_AT_EPOCH":21404,"BSTAR":0.00073607,"MEAN_MOTION_DOT":2.82e-6,"MEAN_MOTION_DDOT":0},{"OBJECT_NAME":"ONEWEB-0173","OBJECT_ID":"2021-025AD","EPOCH":"2025-08-19T22:15:08.566272","MEAN_MOTION":13.13471099,"ECCENTRICITY":0.0001304,"INCLINATION":87.8997,"RA_OF_ASC_NODE":20.057,"ARG_OF_PERICENTER":98.5104,"MEAN_ANOMALY":261.6173,"EPHEMERIS_TYPE":0,"CLASSIFICATION_TYPE":"U","NORAD_CAT_ID":48069,"ELEMENT_SET_NO":999,"REV_AT_EPOCH":21425,"BSTAR":0.00032171,"MEAN_MOTION_DOT":1.3e-6,"MEAN_MOTION_DDOT":0}]
